IRIDIUM 57 [-]          
1 25273U 98019B   24017.49765760  .00000674  00000+0  22981-3 0  9995
2 25273  86.3971   1.6342 0002203  87.5901 272.5548 14.35048491350660
IRIDIUM 63 [-]          
1 25286U 98021B   24017.29867231  .00000833  00000+0  28249-3 0  9996
2 25286  86.3994 298.6540 0002245  90.0917 270.0537 14.35570213349660
IRIDIUM 69 [-]          
1 25319U 98026A   24017.32413463  .00001088  00000+0  34127-3 0  9991
2 25319  86.4003 313.4788 0000830   0.3298 359.7901 14.39753724348666
IRIDIUM 71 [-]          
1 25320U 98026B   24017.84439928  .00000979  00000+0  30440-3 0  9996
2 25320  86.3993 308.0591 0002901  38.3737 321.7668 14.40081142349500
IRIDIUM 73 [-]          
1 25344U 98032C   24017.17680165  .00000972  00000+0  24475-3 0  9990
2 25344  86.4407 265.9905 0001590  73.6270 286.5110 14.50245975355597
IRIDIUM 82 [-]          
1 25467U 98051A   24017.43983487  .00019076  00000+0  10565-2 0  9998
2 25467  86.3964 357.3767 0142449  56.7967 304.6832 15.05332651345621
IRIDIUM 2 [-]           
1 25527U 98066A   24017.52969230  .00056268  00000+0  95887-3 0  9996
2 25527  85.5147  39.9905 0005186 143.0200 217.1417 15.51141962383707
